CCSDS_OMM_VERS = 2.0
CREATION_DATE  = 
ORIGINATOR     = 

OBJECT_NAME    = SL-14 R/B
OBJECT_ID      = 1991-042B
CENTER_NAME    = EARTH
REF_FRAME      = TEME
TIME_SYSTEM    = UTC
MEAN_ELEMENT_THEORY = SGP/SGP4

EPOCH          = 2026-01-31T03:29:26.981088
MEAN_MOTION    = 14.81793316
ECCENTRICITY   = .00172833
INCLINATION    = 82.4907
RA_OF_ASC_NODE = 255.3972
ARG_OF_PERICENTER = 9.6183
MEAN_ANOMALY   = 350.5359

EPHEMERIS_TYPE = 0
CLASSIFICATION_TYPE = U
NORAD_CAT_ID   = 21423
ELEMENT_SET_NO = 999
REV_AT_EPOCH   = 84751
BSTAR          = .55775146E-4
MEAN_MOTION_DOT = .464E-5
MEAN_MOTION_DDOT = 0

CCSDS_OMM_VERS = 2.0
CREATION_DATE  = 
ORIGINATOR     = 

OBJECT_NAME    = ERS-1
OBJECT_ID      = 1991-050A
CENTER_NAME    = EARTH
REF_FRAME      = TEME
TIME_SYSTEM    = UTC
MEAN_ELEMENT_THEORY = SGP/SGP4

EPOCH          = 2026-01-31T00:31:44.131584
MEAN_MOTION    = 14.39416177
ECCENTRICITY   = .0031199
INCLINATION    = 98.7895
RA_OF_ASC_NODE = 48.3096
ARG_OF_PERICENTER = 315.4481
MEAN_ANOMALY   = 44.4198

EPHEMERIS_TYPE = 0
CLASSIFICATION_TYPE = U
NORAD_CAT_ID   = 21574
ELEMENT_SET_NO = 999
REV_AT_EPOCH   = 81031
BSTAR          = .16520286E-3
MEAN_MOTION_DOT = .47E-5
MEAN_MOTION_DDOT = 0

CCSDS_OMM_VERS = 2.0
CREATION_DATE  = 
ORIGINATOR     = 

OBJECT_NAME    = ARIANE 40 R/B
OBJECT_ID      = 1991-050F
CENTER_NAME    = EARTH
REF_FRAME      = TEME
TIME_SYSTEM    = UTC
MEAN_ELEMENT_THEORY = SGP/SGP4

EPOCH          = 2026-01-31T03:54:02.469312
MEAN_MOTION    = 14.42863834
ECCENTRICITY   = .00033037
INCLINATION    = 98.2090
RA_OF_ASC_NODE = 84.7931
ARG_OF_PERICENTER = 167.1820
MEAN_ANOMALY   = 192.9455

EPHEMERIS_TYPE = 0
CLASSIFICATION_TYPE = U
NORAD_CAT_ID   = 21610
ELEMENT_SET_NO = 999
REV_AT_EPOCH   = 81358
BSTAR          = .13107543E-3
MEAN_MOTION_DOT = .396E-5
MEAN_MOTION_DDOT = 0

CCSDS_OMM_VERS = 2.0
CREATION_DATE  = 
ORIGINATOR     = 

OBJECT_NAME    = INTERCOSMOS 25
OBJECT_ID      = 1991-086A
CENTER_NAME    = EARTH
REF_FRAME      = TEME
TIME_SYSTEM    = UTC
MEAN_ELEMENT_THEORY = SGP/SGP4

EPOCH          = 2026-01-31T06:09:12.254112
MEAN_MOTION    = 12.11898808
ECCENTRICITY   = .14864205
INCLINATION    = 82.6093
RA_OF_ASC_NODE = 332.6289
ARG_OF_PERICENTER = 197.5901
MEAN_ANOMALY   = 156.7922

EPHEMERIS_TYPE = 0
CLASSIFICATION_TYPE = U
NORAD_CAT_ID   = 21819
ELEMENT_SET_NO = 999
REV_AT_EPOCH   = 49215
BSTAR          = .25097584E-3
MEAN_MOTION_DOT = .1284E-4
MEAN_MOTION_DDOT = 0

CCSDS_OMM_VERS = 2.0
CREATION_DATE  = 
ORIGINATOR     = 

OBJECT_NAME    = SL-8 R/B
OBJECT_ID      = 1992-008B
CENTER_NAME    = EARTH
REF_FRAME      = TEME
TIME_SYSTEM    = UTC
MEAN_ELEMENT_THEORY = SGP/SGP4

EPOCH          = 2026-01-31T06:49:58.968192
MEAN_MOTION    = 13.75968876
ECCENTRICITY   = .00334621
INCLINATION    = 82.9279
RA_OF_ASC_NODE = 295.6025
ARG_OF_PERICENTER = 238.2765
MEAN_ANOMALY   = 243.0983

EPHEMERIS_TYPE = 0
CLASSIFICATION_TYPE = U
NORAD_CAT_ID   = 21876
ELEMENT_SET_NO = 999
REV_AT_EPOCH   = 70427
BSTAR          = .5740899E-4
MEAN_MOTION_DOT = .71E-6
MEAN_MOTION_DDOT = 0

CCSDS_OMM_VERS = 2.0
CREATION_DATE  = 
ORIGINATOR     = 

OBJECT_NAME    = SL-8 R/B
OBJECT_ID      = 1992-020B
CENTER_NAME    = EARTH
REF_FRAME      = TEME
TIME_SYSTEM    = UTC
MEAN_ELEMENT_THEORY = SGP/SGP4

EPOCH          = 2026-01-31T04:20:57.738048
MEAN_MOTION    = 13.75543169
ECCENTRICITY   = .00297837
INCLINATION    = 82.9317
RA_OF_ASC_NODE = 181.6028
ARG_OF_PERICENTER = 44.4763
MEAN_ANOMALY   = 128.0967

EPHEMERIS_TYPE = 0
CLASSIFICATION_TYPE = U
NORAD_CAT_ID   = 21938
ELEMENT_SET_NO = 999
REV_AT_EPOCH   = 69597
BSTAR          = .11355002E-3
MEAN_MOTION_DOT = .125E-5
MEAN_MOTION_DDOT = 0

CCSDS_OMM_VERS = 2.0
CREATION_DATE  = 
ORIGINATOR     = 

OBJECT_NAME    = USA 81
OBJECT_ID      = 1992-023A
CENTER_NAME    = EARTH
REF_FRAME      = TEME
TIME_SYSTEM    = UTC
MEAN_ELEMENT_THEORY = SGP/SGP4

EPOCH          = 2026-01-31T06:50:01.270752
MEAN_MOTION    = 14.32352735
ECCENTRICITY   = .0002344
INCLINATION    = 85.0118
RA_OF_ASC_NODE = 153.0075
ARG_OF_PERICENTER = 110.3533
MEAN_ANOMALY   = 249.7911

EPHEMERIS_TYPE = 0
CLASSIFICATION_TYPE = U
NORAD_CAT_ID   = 21949
ELEMENT_SET_NO = 999
REV_AT_EPOCH   = 8943
BSTAR          = .87429927E-4
MEAN_MOTION_DOT = .256E-5
MEAN_MOTION_DDOT = 0

CCSDS_OMM_VERS = 2.0
CREATION_DATE  = 
ORIGINATOR     = 

OBJECT_NAME    = COSMOS 2219
OBJECT_ID      = 1992-076A
CENTER_NAME    = EARTH
REF_FRAME      = TEME
TIME_SYSTEM    = UTC
MEAN_ELEMENT_THEORY = SGP/SGP4

EPOCH          = 2026-01-31T07:30:02.274048
MEAN_MOTION    = 14.14078767
ECCENTRICITY   = .00206914
INCLINATION    = 71.0596
RA_OF_ASC_NODE = 96.2088
ARG_OF_PERICENTER = 258.9349
MEAN_ANOMALY   = 100.9446

EPHEMERIS_TYPE = 0
CLASSIFICATION_TYPE = U
NORAD_CAT_ID   = 22219
ELEMENT_SET_NO = 999
REV_AT_EPOCH   = 71309
BSTAR          = -.10144426E-3
MEAN_MOTION_DOT = -.241E-5
MEAN_MOTION_DDOT = 0

CCSDS_OMM_VERS = 2.0
CREATION_DATE  = 
ORIGINATOR     = 

OBJECT_NAME    = SL-16 R/B
OBJECT_ID      = 1992-076B
CENTER_NAME    = EARTH
REF_FRAME      = TEME
TIME_SYSTEM    = UTC
MEAN_ELEMENT_THEORY = SGP/SGP4

EPOCH          = 2026-01-31T02:01:56.415072
MEAN_MOTION    = 14.16851191
ECCENTRICITY   = .00120706
INCLINATION    = 70.9987
RA_OF_ASC_NODE = 267.5896
ARG_OF_PERICENTER = 162.2450
MEAN_ANOMALY   = 349.8782

EPHEMERIS_TYPE = 0
CLASSIFICATION_TYPE = U
NORAD_CAT_ID   = 22220
ELEMENT_SET_NO = 999
REV_AT_EPOCH   = 71650
BSTAR          = .12207493E-3
MEAN_MOTION_DOT = .197E-5
MEAN_MOTION_DDOT = 0

CCSDS_OMM_VERS = 2.0
CREATION_DATE  = 
ORIGINATOR     = 

OBJECT_NAME    = COSMOS 2221
OBJECT_ID      = 1992-080A
CENTER_NAME    = EARTH
REF_FRAME      = TEME
TIME_SYSTEM    = UTC
MEAN_ELEMENT_THEORY = SGP/SGP4

EPOCH          = 2026-01-31T06:01:08.688000
MEAN_MOTION    = 14.96038205
ECCENTRICITY   = .00135482
INCLINATION    = 82.5068
RA_OF_ASC_NODE = 314.9323
ARG_OF_PERICENTER = 325.0122
MEAN_ANOMALY   = 35.0209

EPHEMERIS_TYPE = 0
CLASSIFICATION_TYPE = U
NORAD_CAT_ID   = 22236
ELEMENT_SET_NO = 999
REV_AT_EPOCH   = 77519
BSTAR          = .23919831E-3
MEAN_MOTION_DOT = .2714E-4
MEAN_MOTION_DDOT = 0

CCSDS_OMM_VERS = 2.0
CREATION_DATE  = 
ORIGINATOR     = 

OBJECT_NAME    = SL-16 R/B
OBJECT_ID      = 1992-093B
CENTER_NAME    = EARTH
REF_FRAME      = TEME
TIME_SYSTEM    = UTC
MEAN_ELEMENT_THEORY = SGP/SGP4

EPOCH          = 2026-01-31T06:49:19.754688
MEAN_MOTION    = 14.15443000
ECCENTRICITY   = .00048911
INCLINATION    = 71.0211
RA_OF_ASC_NODE = 82.7932
ARG_OF_PERICENTER = 333.1106
MEAN_ANOMALY   = 26.9763

EPHEMERIS_TYPE = 0
CLASSIFICATION_TYPE = U
NORAD_CAT_ID   = 22285
ELEMENT_SET_NO = 999
REV_AT_EPOCH   = 70786
BSTAR          = -.7228455E-4
MEAN_MOTION_DOT = -.189E-5
MEAN_MOTION_DDOT = 0

CCSDS_OMM_VERS = 2.0
CREATION_DATE  = 
ORIGINATOR     = 

OBJECT_NAME    = COSMOS 2228
OBJECT_ID      = 1992-094A
CENTER_NAME    = EARTH
REF_FRAME      = TEME
TIME_SYSTEM    = UTC
MEAN_ELEMENT_THEORY = SGP/SGP4

EPOCH          = 2026-01-31T05:23:38.926176
MEAN_MOTION    = 14.97015350
ECCENTRICITY   = .0019498
INCLINATION    = 82.5173
RA_OF_ASC_NODE = 273.1843
ARG_OF_PERICENTER = 69.4050
MEAN_ANOMALY   = 290.9261

EPHEMERIS_TYPE = 0
CLASSIFICATION_TYPE = U
NORAD_CAT_ID   = 22286
ELEMENT_SET_NO = 999
REV_AT_EPOCH   = 77045
BSTAR          = .20350916E-3
MEAN_MOTION_DOT = .2377E-4
MEAN_MOTION_DDOT = 0

