SL-14 R/B               
1 21423U 91042B   26031.14545117  .00000464  00000+0  55775-4 0  9994
2 21423  82.4907 255.3972 0017283   9.6183 350.5359 14.81793316847513
ERS-1                   
1 21574U 91050A   26031.02203856  .00000470  00000+0  16520-3 0  9999
2 21574  98.7895  48.3096 0031199 315.4481  44.4198 14.39416177810312
ARIANE 40 R/B           
1 21610U 91050F   26031.16252858  .00000396  00000+0  13108-3 0  9997
2 21610  98.2090  84.7931 0003303 167.1820 192.9455 14.42863834813589
INTERCOSMOS 25          
1 21819U 91086A   26031.25639183  .00001284  00000+0  25098-3 0  9995
2 21819  82.6093 332.6289 1486420 197.5901 156.7922 12.11898808492150
SL-8 R/B                
1 21876U 92008B   26031.28471028  .00000071  00000+0  57409-4 0  9993
2 21876  82.9279 295.6025 0033462 238.2765 243.0983 13.75968876704272
SL-8 R/B                
1 21938U 92020B   26031.18122382  .00000125  00000+0  11355-3 0  9990
2 21938  82.9317 181.6028 0029783  44.4763 128.0967 13.75543169695971
USA 81                  
1 21949U 92023A   26031.28473693  .00000256  00000+0  87430-4 0  9993
2 21949  85.0118 153.0075 0002344 110.3533 249.7911 14.32352735 89432
COSMOS 2219             
1 22219U 92076A   26031.31252632 -.00000241  00000+0 -10144-3 0  9997
2 22219  71.0596  96.2088 0020691 258.9349 100.9446 14.14078767713096
SL-16 R/B               
1 22220U 92076B   26031.08468073  .00000197  00000+0  12207-3 0  9991
2 22220  70.9987 267.5896 0012070 162.2450 349.8782 14.16851191716500
COSMOS 2221             
1 22236U 92080A   26031.25079500  .00002714  00000+0  23920-3 0  9996
2 22236  82.5068 314.9323 0013548 325.0122  35.0209 14.96038205775193
SL-16 R/B               
1 22285U 92093B   26031.28425642 -.00000189  00000+0 -72285-4 0  9994
2 22285  71.0211  82.7932 0004891 333.1106  26.9763 14.15443000707866
COSMOS 2228             
1 22286U 92094A   26031.22475609  .00002377  00000+0  20351-3 0  9993
2 22286  82.5173 273.1843 0019498  69.4050 290.9261 14.97015350770458
